[
    {
        "Altitude(m)": 556966.7884472961,
        "Argument of Periapsis(deg)": 0.006622991110713501,
        "Eccentricity": 0.0,
        "Inclination(deg)": 53.0,
        "Latitude(deg)": 40.09229119672463,
        "Longitude(deg)": 50.11012216349174,
        "Mean Anomaly(deg)": 126.45529286757758,
        "RAAN(deg)": 9.990143368528015,
        "Satellite Name": "Starlink Shell 1 51",
        "Satellite Number": 51,
        "Semi-Major Axis(m)": 6931778.249405717,
        "Time(s)": 190
    },
    {
        "Altitude(m)": 556883.848780509,
        "Argument of Periapsis(deg)": 0.0069715695902247375,
        "Eccentricity": 0.0,
        "Inclination(deg)": 53.0,
        "Latitude(deg)": 39.701056030395456,
        "Longitude(deg)": 50.70699256750093,
        "Mean Anomaly(deg)": 127.08212407113432,
        "RAAN(deg)": 9.989624598450543,
        "Satellite Name": "Starlink Shell 1 51",
        "Satellite Number": 51,
        "Semi-Major Axis(m)": 6931778.249405717,
        "Time(s)": 200
    },
    {
        "Altitude(m)": 556800.7160765426,
        "Argument of Periapsis(deg)": 0.007320148069735974,
        "Eccentricity": 0.0,
        "Inclination(deg)": 53.0,
        "Latitude(deg)": 39.30632645898054,
        "Longitude(deg)": 51.29667212690983,
        "Mean Anomaly(deg)": 127.70895527469104,
        "RAAN(deg)": 9.989105828373072,
        "Satellite Name": "Starlink Shell 1 51",
        "Satellite Number": 51,
        "Semi-Major Axis(m)": 6931778.249405717,
        "Time(s)": 210
    },
    {
        "Altitude(m)": 556717.4445079528,
        "Argument of Periapsis(deg)": 0.007668726549247212,
        "Eccentricity": 0.0,
        "Inclination(deg)": 53.0,
        "Latitude(deg)": 38.908188461703176,
        "Longitude(deg)": 51.87927935742339,
        "Mean Anomaly(deg)": 128.33578647824774,
        "RAAN(deg)": 9.988587058295598,
        "Satellite Name": "Starlink Shell 1 51",
        "Satellite Number": 51,
        "Semi-Major Axis(m)": 6931778.249405717,
        "Time(s)": 220
    },
    {
        "Altitude(m)": 556634.0885279732,
        "Argument of Periapsis(deg)": 0.00801730502875845,
        "Eccentricity": 0.0,
        "Inclination(deg)": 53.0,
        "Latitude(deg)": 38.50672620592306,
        "Longitude(deg)": 52.454933503587945,
        "Mean Anomaly(deg)": 128.96261768180446,
        "RAAN(deg)": 9.988068288218127,
        "Satellite Name": "Starlink Shell 1 51",
        "Satellite Number": 51,
        "Semi-Major Axis(m)": 6931778.249405717,
        "Time(s)": 230
    },
    {
        "Altitude(m)": 556550.7028427976,
        "Argument of Periapsis(deg)": 0.008365883508269684,
        "Eccentricity": 0.0,
        "Inclination(deg)": 53.0,
        "Latitude(deg)": 38.10202206575175,
        "Longitude(deg)": 53.023754838536654,
        "Mean Anomaly(deg)": 129.58944888536115,
        "RAAN(deg)": 9.987549518140652,
        "Satellite Name": "Starlink Shell 1 51",
        "Satellite Number": 51,
        "Semi-Major Axis(m)": 6931778.249405717,
        "Time(s)": 240
    },
    {
        "Altitude(m)": 556467.3423836846,
        "Argument of Periapsis(deg)": 0.008714461987780921,
        "Eccentricity": 0.0,
        "Inclination(deg)": 53.0,
        "Latitude(deg)": 37.694156642909775,
        "Longitude(deg)": 53.58586346544621,
        "Mean Anomaly(deg)": 130.2162800889179,
        "RAAN(deg)": 9.98703074806318,
        "Satellite Name": "Starlink Shell 1 51",
        "Satellite Number": 51,
        "Semi-Major Axis(m)": 6931778.249405717,
        "Time(s)": 250
    },
    {
        "Altitude(m)": 556384.0622789077,
        "Argument of Periapsis(deg)": 0.009063040467292158,
        "Eccentricity": 0.0,
        "Inclination(deg)": 53.0,
        "Latitude(deg)": 37.28320878958527,
        "Longitude(deg)": 54.141379645848865,
        "Mean Anomaly(deg)": 130.8431112924746,
        "RAAN(deg)": 9.986511977985709,
        "Satellite Name": "Starlink Shell 1 51",
        "Satellite Number": 51,
        "Semi-Major Axis(m)": 6931778.249405717,
        "Time(s)": 260
    },
    {
        "Altitude(m)": 556300.9178255704,
        "Argument of Periapsis(deg)": 0.009411618946803396,
        "Eccentricity": 0.0,
        "Inclination(deg)": 53.0,
        "Latitude(deg)": 36.869255633063325,
        "Longitude(deg)": 54.690424141309414,
        "Mean Anomaly(deg)": 131.4699424960313,
        "RAAN(deg)": 9.985993207908233,
        "Satellite Name": "Starlink Shell 1 51",
        "Satellite Number": 51,
        "Semi-Major Axis(m)": 6931778.249405717,
        "Time(s)": 270
    },
    {
        "Altitude(m)": 556217.9644612883,
        "Argument of Periapsis(deg)": 0.009760197426314633,
        "Eccentricity": 0.0,
        "Inclination(deg)": 53.0,
        "Latitude(deg)": 36.45237260191111,
        "Longitude(deg)": 55.23311705497674,
        "Mean Anomaly(deg)": 132.09677369958803,
        "RAAN(deg)": 9.985474437830762,
        "Satellite Name": "Starlink Shell 1 51",
        "Satellite Number": 51,
        "Semi-Major Axis(m)": 6931778.249405717,
        "Time(s)": 280
    },
    {
        "Altitude(m)": 556135.257735756,
        "Argument of Periapsis(deg)": 0.01010877590582587,
        "Eccentricity": 0.0,
        "Inclination(deg)": 53.0,
        "Latitude(deg)": 36.032633453523154,
        "Longitude(deg)": 55.76957819814541,
        "Mean Anomaly(deg)": 132.72360490314475,
        "RAAN(deg)": 9.984955667753288,
        "Satellite Name": "Starlink Shell 1 51",
        "Satellite Number": 51,
        "Semi-Major Axis(m)": 6931778.249405717,
        "Time(s)": 290
    },
    {
        "Altitude(m)": 556052.8532822189,
        "Argument of Periapsis(deg)": 0.010457354385337106,
        "Eccentricity": 0.0,
        "Inclination(deg)": 53.0,
        "Latitude(deg)": 35.61011030283934,
        "Longitude(deg)": 56.299927468346105,
        "Mean Anomaly(deg)": 133.35043610670147,
        "RAAN(deg)": 9.984436897675815,
        "Satellite Name": "Starlink Shell 1 51",
        "Satellite Number": 51,
        "Semi-Major Axis(m)": 6931778.249405717,
        "Time(s)": 300
    },
    {
        "Altitude(m)": 555970.8067888543,
        "Argument of Periapsis(deg)": 0.010805932864848343,
        "Eccentricity": 0.0,
        "Inclination(deg)": 53.0,
        "Latitude(deg)": 35.18487365206261,
        "Longitude(deg)": 56.82428372549065,
        "Mean Anomaly(deg)": 133.97726731025816,
        "RAAN(deg)": 9.983918127598342,
        "Satellite Name": "Starlink Shell 1 51",
        "Satellite Number": 51,
        "Semi-Major Axis(m)": 6931778.249405717,
        "Time(s)": 310
    },
    {
        "Altitude(m)": 555889.1739700672,
        "Argument of Periapsis(deg)": 0.01115451134435958,
        "Eccentricity": 0.0,
        "Inclination(deg)": 53.0,
        "Latitude(deg)": 34.756992421221156,
        "Longitude(deg)": 57.34276519123448,
        "Mean Anomaly(deg)": 134.60409851381488,
        "RAAN(deg)": 9.98339935752087,
        "Satellite Name": "Starlink Shell 1 51",
        "Satellite Number": 51,
        "Semi-Major Axis(m)": 6931778.249405717,
        "Time(s)": 320
    },
    {
        "Altitude(m)": 555808.0105377722,
        "Argument of Periapsis(deg)": 0.011503089823870818,
        "Eccentricity": 0.0,
        "Inclination(deg)": 53.0,
        "Latitude(deg)": 34.32653397942602,
        "Longitude(deg)": 57.85548985811036,
        "Mean Anomaly(deg)": 135.23092971737162,
        "RAAN(deg)": 9.982880587443397,
        "Satellite Name": "Starlink Shell 1 51",
        "Satellite Number": 51,
        "Semi-Major Axis(m)": 6931778.249405717,
        "Time(s)": 330
    },
    {
        "Altitude(m)": 555727.37217256,
        "Argument of Periapsis(deg)": 0.011851668303382053,
        "Eccentricity": 0.0,
        "Inclination(deg)": 53.0,
        "Latitude(deg)": 33.8935641766886,
        "Longitude(deg)": 58.362574395000365,
        "Mean Anomaly(deg)": 135.8577609209283,
        "RAAN(deg)": 9.982361817365925,
        "Satellite Name": "Starlink Shell 1 51",
        "Satellite Number": 51,
        "Semi-Major Axis(m)": 6931778.249405717,
        "Time(s)": 340
    },
    {
        "Altitude(m)": 555647.3144948867,
        "Argument of Periapsis(deg)": 0.012200246782893292,
        "Eccentricity": 0.0,
        "Inclination(deg)": 53.0,
        "Latitude(deg)": 33.45814737617655,
        "Longitude(deg)": 58.864134574157525,
        "Mean Anomaly(deg)": 136.48459212448503,
        "RAAN(deg)": 9.981843047288452,
        "Satellite Name": "Starlink Shell 1 51",
        "Satellite Number": 51,
        "Semi-Major Axis(m)": 6931778.249405717,
        "Time(s)": 350
    },
    {
        "Altitude(m)": 555567.8930362351,
        "Argument of Periapsis(deg)": 0.012548825262404526,
        "Eccentricity": 0.0,
        "Inclination(deg)": 53.0,
        "Latitude(deg)": 33.02034648679365,
        "Longitude(deg)": 59.360285706380324,
        "Mean Anomaly(deg)": 137.11142332804175,
        "RAAN(deg)": 9.981324277210978,
        "Satellite Name": "Starlink Shell 1 51",
        "Satellite Number": 51,
        "Semi-Major Axis(m)": 6931778.249405717,
        "Time(s)": 360
    },
    {
        "Altitude(m)": 555489.1632102702,
        "Argument of Periapsis(deg)": 0.012897403741915765,
        "Eccentricity": 0.0,
        "Inclination(deg)": 53.0,
        "Latitude(deg)": 32.58022299597861,
        "Longitude(deg)": 59.8511415709635,
        "Mean Anomaly(deg)": 137.73825453159847,
        "RAAN(deg)": 9.980805507133507,
        "Satellite Name": "Starlink Shell 1 51",
        "Satellite Number": 51,
        "Semi-Major Axis(m)": 6931778.249405717,
        "Time(s)": 370
    }
]